NORAD_CAT_ID,OBJECT_NAME,OBJECT_TYPE,EPOCH,MEAN_MOTION,ECCENTRICITY,INCLINATION,RA_OF_ASC_NODE,ARG_OF_PERICENTER,MEAN_ANOMALY,BSTAR,MEAN_MOTION_DOT,MEAN_MOTION_DDOT,TLE_LINE0,TLE_LINE1,TLE_LINE2,SEMIMAJOR_AXIS,PERIOD,APOGEE,PERIGEE,DECAYED
55415.0,STARLINK-5618,PAYLOAD,2024-04-20 20:09:27,14.9832195,0.0002423,70.0036,18.5861,257.4649,102.6239,-0.00014342,-1.803e-05,0.0,0 STARLINK-5618,1 55415U 23014AA  24111.83990347 -.00001803  00000-0 -14342-3 0  9993,2 55415  70.0036  18.5861 0002423 257.4649 102.6239 14.98321950 67597,6950.218,96.108,573.767,570.399,0.0
55415.0,STARLINK-5618,PAYLOAD,2024-04-20 21:45:35,14.98322053,0.0002395,70.0036,18.4178,256.7407,103.3485,-0.00014118,-1.777e-05,0.0,0 STARLINK-5618,1 55415U 23014AA  24111.90666359 -.00001777  00000-0 -14118-3 0  9995,2 55415  70.0036  18.4178 0002395 256.7407 103.3485 14.98322053 68541,6950.217,96.108,573.747,570.418,0.0
55415.0,STARLINK-5618,PAYLOAD,2024-04-21 04:10:08,14.98321098,0.0002472,70.0029,17.7435,256.8585,103.2298,-0.00015264,-1.913e-05,0.0,0 STARLINK-5618,1 55415U 23014AA  24112.17370554 -.00001913  00000-0 -15264-3 0  9999,2 55415  70.0029  17.7435 0002472 256.8585 103.2298 14.98321098 68588,6950.22,96.108,573.804,570.367,0.0
55415.0,STARLINK-5618,PAYLOAD,2024-04-21 20:11:28,14.98330135,0.0002775,70.0016,16.0588,264.3661,95.7182,-0.00011639,-1.481e-05,0.0,0 STARLINK-5618,1 55415U 23014AA  24112.84130103 -.00001481  00000-0 -11639-3 0  9999,2 55415  70.0016  16.0588 0002775 264.3661  95.7182 14.98330135 67746,6950.192,96.107,573.986,570.129,0.0
55415.0,STARLINK-5618,PAYLOAD,2024-04-21 21:47:36,14.9832979,0.0002756,70.0016,15.8905,264.2328,95.8517,-9.8799e-05,-1.272e-05,0.0,0 STARLINK-5618,1 55415U 23014AA  24112.90806088 -.00001272  00000-0 -98799-4 0  9999,2 55415  70.0016  15.8905 0002756 264.2328  95.8517 14.98329790 68697,6950.194,96.107,573.974,570.143,0.0
55415.0,STARLINK-5618,PAYLOAD,2024-04-22 02:35:59,14.98336346,0.0002844,70.0019,15.3861,266.8771,93.2062,3.7844e-05,3.59e-06,0.0,0 STARLINK-5618,1 55415U 23014AA  24113.10833278  .00000359  00000-0  37844-4 0  9990,2 55415  70.0019  15.3861 0002844 266.8771  93.2062 14.98336346 67785,6950.173,96.107,574.015,570.062,0.0
55415.0,STARLINK-5618,PAYLOAD,2024-04-22 20:13:29,14.98323295,0.0002658,70.0022,13.5363,255.2605,104.8259,0.00016723,1.903e-05,0.0,0 STARLINK-5618,1 55415U 23014AA  24113.84269710  .00001903  00000-0  16723-3 0  9993,2 55415  70.0022  13.5363 0002658 255.2605 104.8259 14.98323295 67895,6950.214,96.107,573.926,570.231,0.0
55415.0,STARLINK-5618,PAYLOAD,2024-04-22 21:49:37,14.98323746,0.0002617,70.0021,13.3678,251.2163,108.8712,0.00015682,1.778e-05,0.0,0 STARLINK-5618,1 55415U 23014AA  24113.90945734  .00001778  00000-0  15682-3 0  9990,2 55415  70.0021  13.3678 0002617 251.2163 108.8712 14.98323746 68846,6950.212,96.107,573.896,570.258,0.0
55415.0,STARLINK-5618,PAYLOAD,2024-04-23 04:14:08,14.98330117,0.0003189,70.0008,12.6908,276.9344,83.1453,0.00022877,2.638e-05,0.0,0 STARLINK-5618,1 55415U 23014AA  24114.17649244  .00002638  00000-0  22877-3 0  9997,2 55415  70.0008  12.6908 0003189 276.9344  83.1453 14.98330117 67946,6950.193,96.107,574.274,569.841,0.0
55415.0,STARLINK-5618,PAYLOAD,2024-04-23 20:15:30,14.98325652,0.0002919,70.0024,11.0125,257.2391,102.8442,-6.7523e-05,-8.98e-06,0.0,0 STARLINK-5618,1 55415U 23014AA  24114.84410387 -.00000898  00000-0 -67523-4 0  9991,2 55415  70.0024  11.0125 0002919 257.2391 102.8442 14.98325652 68049,6950.206,96.107,574.1,570.043,0.0
55415.0,STARLINK-5618,PAYLOAD,2024-04-23 21:51:38,14.98328796,0.0002702,70.0016,10.8407,266.3992,93.6858,-2.0272e-05,-3.35e-06,0.0,0 STARLINK-5618,1 55415U 23014AA  24114.91086179 -.00000335  00000-0 -20272-4 0  9993,2 55415  70.0016  10.8407 0002702 266.3992  93.6858 14.98328796 68992,6950.197,96.107,573.94,570.184,0.0
55415.0,STARLINK-5618,PAYLOAD,2024-04-24 02:40:02,14.98334049,0.0002839,70.0015,10.3362,264.4535,95.6301,6.7602e-05,7.14e-06,0.0,0 STARLINK-5618,1 55415U 23014AA  24115.11113535  .00000714  00000-0  67602-4 0  9990,2 55415  70.0015  10.3362 0002839 264.4535  95.6301 14.98334049 68082,6950.18,96.107,574.019,570.072,0.0
55415.0,STARLINK-5618,PAYLOAD,2024-04-24 20:17:28,14.98351714,0.0002637,70.0023,8.4876,260.9187,99.1674,0.00021742,2.504e-05,0.0,0 STARLINK-5618,1 55415U 23014AA  24115.84547175  .00002504  00000-0  21742-3 0  9994,2 55415  70.0023   8.4876 0002637 260.9187  99.1674 14.98351714 68191,6950.126,96.106,573.823,570.158,0.0
55415.0,STARLINK-5618,PAYLOAD,2024-04-24 21:53:34,14.98375424,0.0002664,70.0025,8.319,241.6753,118.4138,0.00045906,5.395e-05,0.0,0 STARLINK-5618,1 55415U 23014AA  24115.91220916  .00005395  00000-0  45906-3 0  9992,2 55415  70.0025   8.3190 0002664 241.6753 118.4138 14.98375424 69146,6950.052,96.104,573.769,570.066,0.0
55415.0,STARLINK-5618,PAYLOAD,2024-04-25 02:42:02,14.9832614,0.0002682,70.0012,7.8121,250.0945,109.9925,-0.00010906,-1.394e-05,0.0,0 STARLINK-5618,1 55415U 23014AA  24116.11253187 -.00001394  00000-0 -10906-3 0  9990,2 55415  70.0012   7.8121 0002682 250.0945 109.9925 14.98326140 68236,6950.205,96.107,573.934,570.206,0.0
55415.0,STARLINK-5618,PAYLOAD,2024-04-25 21:55:40,14.98323407,0.0002759,70.0008,5.7915,260.1696,99.9152,-0.000131,-1.655e-05,0.0,0 STARLINK-5618,1 55415U 23014AA  24116.91365751 -.00001655  00000-0 -13100-3 0  9998,2 55415  70.0008   5.7915 0002759 260.1696  99.9152 14.98323407 69299,6950.213,96.107,573.996,570.161,0.0
55415.0,STARLINK-5618,PAYLOAD,2024-04-26 02:44:03,14.9832645,0.0002698,70.0009,5.2864,262.6032,97.482,-0.00010466,-1.341e-05,0.0,0 STARLINK-5618,1 55415U 23014AA  24117.11393515 -.00001341  00000-0 -10466-3 0  9994,2 55415  70.0009   5.2864 0002698 262.6032  97.4820 14.98326450 68386,6950.204,96.107,573.944,570.194,0.0
55415.0,STARLINK-5618,PAYLOAD,2024-04-26 17:09:16,14.98351368,0.000284,70.0005,3.772,264.1321,95.9515,-0.00044822,-5.44e-05,0.0,0 STARLINK-5618,1 55415U 23014AA  24117.71476919 -.00005440  00000-0 -44822-3 0  9997,2 55415  70.0005   3.7720 0002840 264.1321  95.9515 14.98351368 68473,6950.127,96.106,573.966,570.018,0.0
55415.0,STARLINK-5618,PAYLOAD,2024-04-26 21:57:39,14.98349793,0.0002823,70.0011,3.2665,272.9623,87.1213,-0.00033597,-4.101e-05,0.0,0 STARLINK-5618,1 55415U 23014AA  24117.91504537 -.00004101  00000-0 -33597-3 0  9997,2 55415  70.0011   3.2665 0002823 272.9623  87.1213 14.98349793 69441,6950.132,96.106,573.959,570.035,0.0
55415.0,STARLINK-5618,PAYLOAD,2024-04-27 01:09:55,14.98359239,0.0002332,70.001,2.9295,247.4047,112.6865,-0.00029701,-3.637e-05,0.0,0 STARLINK-5618,1 55415U 23014AA  24118.04855573 -.00003637  00000-0 -29701-3 0  9996,2 55415  70.0010   2.9295 0002332 247.4047 112.6865 14.98359239 68528,6950.102,96.105,573.588,570.347,0.0
55415.0,STARLINK-5618,PAYLOAD,2024-04-27 09:10:36,14.98324596,0.0002188,70.001,2.0877,268.9673,91.1235,0.00014985,1.695e-05,0.0,0 STARLINK-5618,1 55415U 23014AA  24118.38236697  .00001695  00000-0  14985-3 0  9991,2 55415  70.0010   2.0877 0002188 268.9673  91.1235 14.98324596 68572,6950.21,96.107,573.595,570.554,0.0
55415.0,STARLINK-5618,PAYLOAD,2024-04-27 21:59:41,14.98315826,0.0002316,70.0011,0.7405,267.156,92.9334,0.00019667,2.254e-05,0.0,0 STARLINK-5618,1 55415U 23014AA  24118.91645260  .00002254  00000-0  19667-3 0  9994,2 55415  70.0011   0.7405 0002316 267.1560  92.9334 14.98315826 69592,6950.237,96.108,573.711,570.492,0.0
55415.0,STARLINK-5618,PAYLOAD,2024-04-28 01:11:58,14.9831544,0.0002405,70.0013,0.4052,263.5117,96.5768,4.4563e-05,4.39e-06,0.0,0 STARLINK-5618,1 55415U 23014AA  24119.04997795  .00000439  00000-0  44563-4 0  9999,2 55415  70.0013   0.4052 0002405 263.5117  96.5768 14.98315440 68677,6950.238,96.108,573.774,570.431,0.0
55415.0,STARLINK-5618,PAYLOAD,2024-04-28 20:25:34,14.98329067,0.0002677,69.9998,358.3838,265.4573,94.6281,-6.1593e-05,-8.28e-06,0.0,0 STARLINK-5618,1 55415U 23014AA  24119.85109430 -.00000828  00000-0 -61593-4 0  9995,2 55415  69.9998 358.3838 0002677 265.4573  94.6281 14.98329067 68793,6950.196,96.107,573.921,570.2,0.0
55415.0,STARLINK-5618,PAYLOAD,2024-04-28 22:01:42,14.98329254,0.0002703,69.9998,358.2154,266.6015,93.4834,-7.0664e-05,-9.36e-06,0.0,0 STARLINK-5618,1 55415U 23014AA  24119.91785454 -.00000936  00000-0 -70664-4 0  9997,2 55415  69.9998 358.2154 0002703 266.6015  93.4834 14.98329254 69742,6950.195,96.107,573.939,570.182,0.0
55415.0,STARLINK-5618,PAYLOAD,2024-04-29 09:14:38,14.98332893,0.0002792,69.9996,357.0372,268.372,91.712,-8.4663e-05,-1.103e-05,0.0,0 STARLINK-5618,1 55415U 23014AA  24120.38517238 -.00001103  00000-0 -84663-4 0  9994,2 55415  69.9996 357.0372 0002792 268.3720  91.7120 14.98332893 69819,6950.184,96.107,573.989,570.108,0.0
55415.0,STARLINK-5618,PAYLOAD,2024-04-29 20:27:35,14.98324716,0.0002935,69.9995,355.8588,269.3101,90.7722,0.0001075,1.19e-05,0.0,0 STARLINK-5618,1 55415U 23014AA  24120.85249295  .00001190  00000-0  10750-3 0  9990,2 55415  69.9995 355.8588 0002935 269.3101  90.7722 14.98324716 68941,6950.209,96.107,574.114,570.034,0.0
55415.0,STARLINK-5618,PAYLOAD,2024-04-29 22:03:43,14.98327104,0.0002983,69.9993,355.6898,268.6413,91.4404,7.6821e-05,8.24e-06,0.0,0 STARLINK-5618,1 55415U 23014AA  24120.91925233  .00000824  00000-0  76821-4 0  9995,2 55415  69.9993 355.6898 0002983 268.6413  91.4404 14.98327104 69896,6950.202,96.107,574.14,569.994,0.0
55415.0,STARLINK-5618,PAYLOAD,2024-04-30 09:16:39,14.98329454,0.0002947,69.9995,354.5116,268.838,91.2441,5.576e-05,5.72e-06,0.0,0 STARLINK-5618,1 55415U 23014AA  24121.38657184  .00000572  00000-0  55760-4 0  9993,2 55415  69.9995 354.5116 0002947 268.8380  91.2441 14.98329454 69961,6950.195,96.107,574.108,570.011,0.0
55415.0,STARLINK-5618,PAYLOAD,2024-04-30 20:29:36,14.98331078,0.0002984,69.9995,353.3333,269.0104,91.0713,5.6895e-05,5.86e-06,0.0,0 STARLINK-5618,1 55415U 23014AA  24121.85389073  .00000586  00000-0  56895-4 0  9999,2 55415  69.9995 353.3333 0002984 269.0104  91.0713 14.98331078 69096,6950.19,96.107,574.128,569.981,0.0
